{
"type": "FeatureCollection",
"name": "firestations",
"crs": { "type": "name", "properties": { "name": "urn:ogc:def:crs:OGC:1.3:CRS84" } },
"features": [
{ "type": "Feature", "properties": { "osm_way_id": "51851274", "name": "CFD Station 12", "amenity": "fire_station", "building": "yes", "other_tags": "\"addr:city\"=>\"Chattanooga\",\"addr:housenumber\"=>\"909\",\"addr:postcode\"=>\"37405\",\"addr:state\"=>\"TN\",\"addr:street\"=>\"Forest Avenue\",\"website\"=>\"https://chattanooga.gov/fire-department/station-locator/station-12\"" }, "geometry": { "type": "Point", "coordinates": [ -85.301958145849767, 35.07089885 ] } },
{ "type": "Feature", "properties": { "osm_way_id": "52928643", "name": null, "amenity": "fire_station", "building": "yes", "other_tags": null }, "geometry": { "type": "Point", "coordinates": [ -85.297649448929974, 35.1066476 ] } },
{ "type": "Feature", "properties": { "osm_way_id": "80513031", "name": "LVFD", "amenity": "fire_station", "building": "yes", "other_tags": null }, "geometry": { "type": "Point", "coordinates": [ -85.366733640559147, 35.0204655 ] } },
{ "type": "Feature", "properties": { "osm_way_id": "81096533", "name": "Chattanooga Fire Station 16", "amenity": "fire_station", "building": "yes", "other_tags": null }, "geometry": { "type": "Point", "coordinates": [ -85.269518450061213, 35.1035438 ] } },
{ "type": "Feature", "properties": { "osm_way_id": "81251911", "name": "Highway 58 VFD Station 1", "amenity": "fire_station", "building": "yes", "other_tags": "\"addr:housenumber\"=>\"5402\",\"addr:street\"=>\"Highway 58\",\"operator\"=>\"Highway 58 Volunteer Fire Department\",\"phone\"=>\"+1-423-344-5770\"" }, "geometry": { "type": "Point", "coordinates": [ -85.158767740505908, 35.1043773 ] } },
{ "type": "Feature", "properties": { "osm_way_id": "173550107", "name": "Chattanooga Airport Fire & Rescue", "amenity": "fire_station", "building": "yes", "other_tags": null }, "geometry": { "type": "Point", "coordinates": [ -85.205738813697025, 35.03462715 ] } },
{ "type": "Feature", "properties": { "osm_way_id": "178310649", "name": "Bonny Oaks Drive Fire Station", "amenity": "fire_station", "building": "yes", "other_tags": null }, "geometry": { "type": "Point", "coordinates": [ -85.202929262772685, 35.07543525 ] } },
{ "type": "Feature", "properties": { "osm_way_id": "208360157", "name": "Red Bank Fire Department", "amenity": "fire_station", "building": "yes", "other_tags": "\"addr:city\"=>\"red bank\",\"addr:postcode\"=>\"37415\",\"addr:state\"=>\"TN\",\"addr:street\"=>\"Dayton Boulevard\"" }, "geometry": { "type": "Point", "coordinates": [ -85.278561345871864, 35.13979725 ] } },
{ "type": "Feature", "properties": { "osm_way_id": "374979233", "name": "CFD Fire Station 7", "amenity": "fire_station", "building": "civic", "other_tags": null }, "geometry": { "type": "Point", "coordinates": [ -85.153167921932294, 35.07730475 ] } },
{ "type": "Feature", "properties": { "osm_way_id": "507859967", "name": "CFD Station 10", "amenity": "fire_station", "building": "yes", "other_tags": null }, "geometry": { "type": "Point", "coordinates": [ -85.262991702579029, 35.0803084 ] } },
{ "type": "Feature", "properties": { "osm_way_id": "509708044", "name": "Fire Station 13", "amenity": "fire_station", "building": "yes", "other_tags": null }, "geometry": { "type": "Point", "coordinates": [ -85.224415596241556, 35.0118343 ] } },
{ "type": "Feature", "properties": { "osm_way_id": "513171896", "name": "CFD Fire Station 5", "amenity": "fire_station", "building": null, "other_tags": "\"operator\"=>\"City of Chattanooga\",\"website\"=>\"https://chattanooga.gov/fire-department/station-locator/station-5\"" }, "geometry": { "type": "Point", "coordinates": [ -85.275258640457508, 35.03039975 ] } },
{ "type": "Feature", "properties": { "osm_way_id": "546488917", "name": null, "amenity": "fire_station", "building": "yes", "other_tags": null }, "geometry": { "type": "Point", "coordinates": [ -85.105699955306704, 35.03357285 ] } },
{ "type": "Feature", "properties": { "osm_way_id": "684605573", "name": "Chattanooga Fire Dept.", "amenity": "fire_station", "building": "yes", "other_tags": null }, "geometry": { "type": "Point", "coordinates": [ -85.321033300791754, 35.00859775 ] } },
{ "type": "Feature", "properties": { "osm_way_id": "686663647", "name": "Dallas Bay Volunteer Fire Department Station 2", "amenity": "fire_station", "building": "yes", "other_tags": null }, "geometry": { "type": "Point", "coordinates": [ -85.159574774325108, 35.19666915 ] } },
{ "type": "Feature", "properties": { "osm_way_id": "686906585", "name": null, "amenity": "fire_station", "building": "yes", "other_tags": null }, "geometry": { "type": "Point", "coordinates": [ -85.25669525, 35.0609889 ] } },
{ "type": "Feature", "properties": { "osm_way_id": "706096595", "name": "East Ridge Fire Station #2", "amenity": "fire_station", "building": null, "other_tags": "\"addr:housenumber\"=>\"1410\",\"addr:street\"=>\"Saint Thomas Street\"" }, "geometry": { "type": "Point", "coordinates": [ -85.198549892040802, 34.9909212 ] } },
{ "type": "Feature", "properties": { "osm_way_id": "1064873994", "name": "CFD Station 19", "amenity": "fire_station", "building": "fire_station", "other_tags": null }, "geometry": { "type": "Point", "coordinates": [ -85.23730691294142, 35.1360732 ] } },
{ "type": "Feature", "properties": { "osm_way_id": "1096136851", "name": "Highway 58 VFD Station 3", "amenity": "fire_station", "building": "yes", "other_tags": "\"addr:housenumber\"=>\"13430\",\"addr:street\"=>\"Birchwood Pike\",\"operator\"=>\"Highway 58 Volunteer Fire Department\"" }, "geometry": { "type": "Point", "coordinates": [ -85.025053242585088, 35.31695165 ] } },
{ "type": "Feature", "properties": { "osm_way_id": "1096136853", "name": "Highway 58 VFD Station 4", "amenity": "fire_station", "building": "yes", "other_tags": "\"addr:housenumber\"=>\"10916\",\"addr:street\"=>\"Highway 58\",\"operator\"=>\"Highway 58 Volunteer Fire Department\"" }, "geometry": { "type": "Point", "coordinates": [ -85.005293713899562, 35.24710235 ] } },
{ "type": "Feature", "properties": { "osm_way_id": "1096136854", "name": "Highway 58 VFD Station 2", "amenity": "fire_station", "building": "yes", "other_tags": "\"addr:housenumber\"=>\"9018\",\"addr:street\"=>\"Career Lane\",\"operator\"=>\"Highway 58 Volunteer Fire Department\"" }, "geometry": { "type": "Point", "coordinates": [ -85.061675663946374, 35.1831603 ] } },
{ "type": "Feature", "properties": { "osm_way_id": "1096136855", "name": "Highway 58 VFD Station 5", "amenity": "fire_station", "building": "yes", "other_tags": "\"addr:housenumber\"=>\"6209\",\"addr:street\"=>\"Cooley Road\",\"operator\"=>\"Highway 58 Volunteer Fire Department\"" }, "geometry": { "type": "Point", "coordinates": [ -85.06610471239884, 35.2495038 ] } },
{ "type": "Feature", "properties": { "osm_way_id": "1104203414", "name": null, "amenity": "fire_station", "building": "yes", "other_tags": null }, "geometry": { "type": "Point", "coordinates": [ -85.027374325188106, 35.01835695 ] } },
{ "type": "Feature", "properties": { "osm_way_id": "1215565758", "name": null, "amenity": "fire_station", "building": "yes", "other_tags": null }, "geometry": { "type": "Point", "coordinates": [ -85.387616682797272, 35.02266495 ] } },
{ "type": "Feature", "properties": { "osm_way_id": null, "name": "CFD Station 1", "amenity": null, "building": null, "other_tags": "\"amenity\"=>\"fire_station\"" }, "geometry": { "type": "Point", "coordinates": [ -85.3047104, 35.0347773 ] } },
{ "type": "Feature", "properties": { "osm_way_id": null, "name": "CFD Station 4", "amenity": null, "building": null, "other_tags": "\"amenity\"=>\"fire_station\"" }, "geometry": { "type": "Point", "coordinates": [ -85.2567579, 35.0609738 ] } },
{ "type": "Feature", "properties": { "osm_way_id": null, "name": null, "amenity": null, "building": null, "other_tags": "\"amenity\"=>\"fire_station\"" }, "geometry": { "type": "Point", "coordinates": [ -85.1330975, 35.0848214 ] } }
]
}
